TIANMU-1 20             
1 58661U 23208B   26198.93822697  .00004496  00000+0  14266-3 0  9997
2 58661  97.4473 316.0758 0006602 201.5683 158.5282 15.33189837142131
TIANMU-1 21             
1 58662U 23208C   26198.94463108  .00005621  00000+0  16480-3 0  9998
2 58662  97.4534 318.8981 0006958 194.1072 165.9978 15.35582819142280
TIANMU-1 22             
1 58663U 23208D   26198.91677375  .00004136  00000+0  13879-3 0  9998
2 58663  97.4526 315.2962 0003003 206.4085 153.7004 15.31449840142031
TIANMU-1 15             
1 58700U 24004A   26198.96518737  .00002938  00000+0  11391-3 0  9991
2 58700  97.4671  25.1560 0006271 216.9715 143.1092 15.26930450140473
TIANMU-1 16             
1 58701U 24004B   26198.95446608  .00002801  00000+0  10842-3 0  9997
2 58701  97.4620  24.3603 0004617 232.7060 127.3759 15.27033530140476
TIANMU-1 17             
1 58702U 24004C   26198.93995220  .00002834  00000+0  10966-3 0  9998
2 58702  97.4647  24.8420 0004052 238.7841 121.3001 15.27031256140460
TIANMU-1 18             
1 58703U 24004D   26198.98172558  .00002873  00000+0  11143-3 0  9996
2 58703  97.4664  25.1467 0003991 212.3877 147.7117 15.26946336140477
INSAT-3DS               
1 58990U 24033A   26198.92572742 -.00000164  00000+0  00000+0 0  9997
2 58990   0.0834 264.2844 0001168 222.5129 224.2612  1.00270806 47371
METEOR-M2 4             
1 59051U 24039A   26198.99320389 -.00000007  00000+0  16502-4 0  9992
2 59051  98.7027 157.9070 0008252  81.8623 278.3491 14.22432332123645
GOES 19                 
1 60133U 24119A   26198.89462301 -.00000257  00000+0  00000+0 0  9992
2 60133   0.0167 139.7069 0000391  58.1526 344.7085  1.00270879  7275
MTG-S1                  
1 64723U 25143A   26198.83737803 -.00000016  00000+0  00000+0 0  9998
2 64723   0.5828 345.7575 0003352 259.7759 351.1878  1.00274335  3720
METOP-SGA1              
1 65159U 25172A   26195.76442858  .00000019  00000+0  29163-4 0  9994
2 65159  98.6631 254.9090 0007098 333.3306  26.7504 14.19819127 47700
FENGYUN 3H              
1 65815U 25219A   26198.83473998 -.00000001  00000+0  20117-4 0  9997
2 65815  98.6770 139.0088 0001086  62.5334 297.5953 14.19925003 41730
