OBJECT_NAME,OBJECT_ID,EPOCH,MEAN_MOTION,ECCENTRICITY,INCLINATION,RA_OF_ASC_NODE,ARG_OF_PERICENTER,MEAN_ANOMALY,EPHEMERIS_TYPE,CLASSIFICATION_TYPE,NORAD_CAT_ID,ELEMENT_SET_NO,REV_AT_EPOCH,BSTAR,MEAN_MOTION_DOT,MEAN_MOTION_DDOT
TIANMU-1 20,2023-208B,2026-07-17T22:31:02.810208,15.33189837,.00066028,97.4473,316.0758,201.5683,158.5282,0,U,58661,999,14213,.14266134E-3,.4496E-4,0
TIANMU-1 21,2023-208C,2026-07-17T22:40:16.125312,15.35582819,.00069588,97.4534,318.8981,194.1072,165.9978,0,U,58662,999,14228,.16480201E-3,.5621E-4,0
TIANMU-1 22,2023-208D,2026-07-17T22:00:09.252000,15.31449840,.00030033,97.4526,315.2962,206.4085,153.7004,0,U,58663,999,14203,.13878652E-3,.4136E-4,0
TIANMU-1 15,2024-004A,2026-07-17T23:09:52.188768,15.26930450,.00062717,97.4671,25.1560,216.9715,143.1092,0,U,58700,999,14047,.11390597E-3,.2938E-4,0
TIANMU-1 16,2024-004B,2026-07-17T22:54:25.869312,15.27033530,.00046171,97.4620,24.3603,232.7060,127.3759,0,U,58701,999,14047,.10841925E-3,.2801E-4,0
TIANMU-1 17,2024-004C,2026-07-17T22:33:31.870080,15.27031256,.00040521,97.4647,24.8420,238.7841,121.3001,0,U,58702,999,14046,.10966237E-3,.2834E-4,0
TIANMU-1 18,2024-004D,2026-07-17T23:33:41.090112,15.26946336,.00039916,97.4664,25.1467,212.3877,147.7117,0,U,58703,999,14047,.11143176E-3,.2873E-4,0
INSAT-3DS,2024-033A,2026-07-17T22:13:02.849088,1.00270806,.00011686,0.0834,264.2844,222.5129,224.2612,0,U,58990,999,4737,0,-.164E-5,0
METEOR-M2 4,2024-039A,2026-07-17T23:50:12.816096,14.22432332,.00082525,98.7027,157.9070,81.8623,278.3491,0,U,59051,999,12364,.16501506E-4,-.7E-7,0
GOES 19,2024-119A,2026-07-17T21:28:15.428064,1.00270879,.00003914,0.0167,139.7069,58.1526,344.7085,0,U,60133,999,727,0,-.257E-5,0
MTG-S1,2025-143A,2026-07-17T20:05:49.461792,1.00274335,.00033529,0.5828,345.7575,259.7759,351.1878,0,U,64723,999,372,0,-.16E-6,0
METOP-SGA1,2025-172A,2026-07-14T18:20:46.629312,14.19819127,.00070989,98.6631,254.9090,333.3306,26.7504,0,U,65159,999,4770,.2916334E-4,.19E-6,0
FENGYUN 3H,2025-219A,2026-07-17T20:02:01.534272,14.19925003,.0001086,98.6770,139.0088,62.5334,297.5953,0,U,65815,999,4173,.20117004E-4,-.1E-7,0
